SL-8 R/B                
1 11574U 79089B   26087.33376089  .00000346  00000+0  11246-3 0  9992
2 11574  74.0685  56.5276 0016782 226.8708 133.1046 14.42361887438791
SL-14 R/B               
1 11672U 80005B   26087.58656743  .00000604  00000+0  58438-4 0  9998
2 11672  82.5113 289.3069 0017228  99.6074 260.7093 14.90951222479306
SL-8 R/B                
1 12139U 81003B   26087.53922091  .00025724  00000+0  64441-3 0  9993
2 12139  82.9333 272.5822 0260927 113.0656 249.8316 15.11794620317529
SL-3 R/B                
1 12465U 81046B   26087.53533511  .00013467  00000+0  30864-3 0  9990
2 12465  81.2284 267.1024 0018250 315.5457  44.4320 15.42447536441336
SL-3 R/B                
1 12904U 81103B   26087.58124694  .00006065  00000+0  26718-3 0  9994
2 12904  81.1605 191.2712 0012714 218.6858 141.3464 15.21594564976103
SL-3 R/B                
1 13068U 82013B   26087.58172652  .00003756  00000+0  16133-3 0  9998
2 13068  81.1740 138.6269 0023491 115.4333 244.9334 15.22182216407229
SL-3 R/B                
1 13154U 82039B   26087.54079567  .00002880  00000+0  17335-3 0  9991
2 13154  81.1567 194.2258 0028631 262.0967  97.7008 15.10183677384484
SL-3 R/B                
1 13403U 82079B   26087.56468705  .00006712  00000+0  26512-3 0  9995
2 13403  81.1485 170.7910 0025506 102.7172 257.6915 15.25048561380578
SL-14 R/B               
1 13553U 82092B   26087.57506605  .00000435  00000+0  46068-4 0  9994
2 13553  82.5659 123.7325 0019031 236.0331 284.4121 14.86682970331739
SL-3 R/B                
1 13819U 83010B   26087.58723866  .00017270  00000+0  33978-3 0  9991
2 13819  81.1057 339.0699 0016017 346.6549  13.4270 15.46983791360860
SL-3 R/B                
1 14208U 83075B   26087.54717141  .00013015  00000+0  33794-3 0  9999
2 14208  97.6140  92.8448 0022201 157.4351 202.7876 15.38853093333053
COSMOS 1536             
1 14699U 84013A   26087.49898577  .00007509  00000+0  30736-3 0  9997
2 14699  82.5414  89.1443 0013264 209.0430 151.0071 15.24073479275481
SL-14 R/B               
1 14820U 84027B   26087.48016580  .00000589  00000+0  64593-4 0  9993
2 14820  82.5416 227.3877 0016469 271.3673  88.5657 14.85995917250424
SL-8 R/B                
1 15483U 85006B   26087.64350796  .00000313  00000+0  11246-3 0  9996
2 15483  74.0452 226.2691 0017682 138.6366 232.8734 14.37796602156758
SL-12 R/B(2)            
1 15772U 85042D   26087.63879314  .00000040  00000+0  39281-4 0  9995
2 15772  71.1086  47.6917 0032840  96.7379  75.1663 14.21987729117084
SL-14 R/B               
1 15945U 85069B   26087.25728182  .00000540  00000+0  58117-4 0  9994
2 15945  82.5305   7.4783 0019994 127.8899 232.4130 14.86453014175592
SL-16 R/B               
1 16182U 85097B   26087.49724220 -.00000056  00000+0 -39165-5 0  9991
2 16182  71.0008 100.9570 0009461 237.8513 234.8751 14.16603578 89892
